HIMAWARI-8              
1 40267U 14060A   23316.54045260 -.00000252  00000+0  00000+0 0  9999
2 40267   0.0218  96.7941 0000900 114.8494 174.9879  1.00268638 33250
